[{"OBJECT_NAME":"STARLINK-6258","OBJECT_ID":"2023-061AR","EPOCH":"2026-03-08T08:19:15.572928","MEAN_MOTION":15.0253895,"ECCENTRICITY":0.00014546,"INCLINATION":43.0037,"RA_OF_ASC_NODE":191.677,"ARG_OF_PERICENTER":272.9547,"MEAN_ANOMALY":87.1129,"EPHEMERIS_TYPE":0,"CLASSIFICATION_TYPE":"U","NORAD_CAT_ID":56413,"ELEMENT_SET_NO":999,"REV_AT_EPOCH":15670,"BSTAR":9.0067219e-5,"MEAN_MOTION_DOT":1.013e-5,"MEAN_MOTION_DDOT":0},{"OBJECT_NAME":"PSLV R\/B","OBJECT_ID":"2018-071C","EPOCH":"2026-03-09T22:40:07.416192","MEAN_MOTION":15.00058604,"ECCENTRICITY":0.00237177,"INCLINATION":97.444,"RA_OF_ASC_NODE":249.6196,"ARG_OF_PERICENTER":104.8167,"MEAN_ANOMALY":255.5687,"EPHEMERIS_TYPE":0,"CLASSIFICATION_TYPE":"U","NORAD_CAT_ID":43620,"ELEMENT_SET_NO":999,"REV_AT_EPOCH":40754,"BSTAR":0.00020356401,"MEAN_MOTION_DOT":2.493e-5,"MEAN_MOTION_DDOT":0}]
